NORAD_CAT_ID,OBJECT_NAME,OBJECT_TYPE,EPOCH,MEAN_MOTION,ECCENTRICITY,INCLINATION,RA_OF_ASC_NODE,ARG_OF_PERICENTER,MEAN_ANOMALY,BSTAR,MEAN_MOTION_DOT,MEAN_MOTION_DDOT,TLE_LINE0,TLE_LINE1,TLE_LINE2,SEMIMAJOR_AXIS,PERIOD,APOGEE,PERIGEE,DECAYED
53981.0,STARLINK-5149,PAYLOAD,2023-01-18 12:28:41,15.08876445,0.0001403,53.216,309.2496,60.7981,299.3152,0.0017324,0.00027418,0.0,0 STARLINK-5149,1 53981U 22125T   23018.51992040  .00027418  00000-0  17324-2 0  9993,2 53981  53.2160 309.2496 0001403  60.7981 299.3152 15.08876445 16575,6917.769,95.435,540.605,538.663,0.0
53981.0,STARLINK-5149,PAYLOAD,2023-01-19 01:11:45,15.08880214,0.0001518,53.2149,306.8709,66.9643,293.1509,0.0021779,0.00034582,0.0,0 STARLINK-5149,1 53981U 22125T   23019.04983427  .00034582  00000-0  21779-2 0  9990,2 53981  53.2149 306.8709 0001518  66.9643 293.1509 15.08880214 16726,6917.757,95.435,540.673,538.572,0.0
53981.0,STARLINK-5149,PAYLOAD,2023-01-19 04:22:31,15.08885173,0.0001625,53.2155,306.2769,66.7091,293.4072,0.002258,0.00035876,0.0,0 STARLINK-5149,1 53981U 22125T   23019.18231129  .00035876  00000-0  22580-2 0  9998,2 53981  53.2155 306.2769 0001625  66.7091 293.4072 15.08885173 16678,6917.741999999999,95.435,540.731,538.4830000000001,0.0
53981.0,STARLINK-5149,PAYLOAD,2023-01-20 01:02:33,15.08851151,0.0001320999999999,53.2158,302.4094,91.7102,268.4041,0.0023734,0.00037699,0.0,0 STARLINK-5149,1 53981U 22125T   23020.04344144  .00037699  00000-0  23734-2 0  9994,2 53981  53.2158 302.4094 0001321  91.7102 268.4041 15.08851151 16873,6917.846,95.437,540.625,538.797,0.0
53981.0,STARLINK-5149,PAYLOAD,2023-01-20 05:48:42,15.08847623,0.0001515,53.2162,301.518,90.5413,269.5753,0.0021171,0.00033574,0.0,0 STARLINK-5149,1 53981U 22125T   23020.24216182  .00033574  00000-0  21171-2 0  9997,2 53981  53.2162 301.5180 0001515  90.5413 269.5753 15.08847623 16906,6917.857,95.437,540.77,538.674,0.0
53981.0,STARLINK-5149,PAYLOAD,2023-01-20 12:10:15,15.08826901,0.0001663,53.2161,300.3288,77.5677,282.5501,0.00125,0.00019655,0.0,0 STARLINK-5149,1 53981U 22125T   23020.50712797  .00019655  00000-0  12500-2 0  9999,2 53981  53.2161 300.3288 0001663  77.5677 282.5501 15.08826901 16948,6917.92,95.438,540.936,538.635,0.0
53981.0,STARLINK-5149,PAYLOAD,2023-01-21 04:04:07,15.0885715,0.0001653,53.2154,297.3545,81.5918,278.5262,0.002081,0.00033002,0.0,0 STARLINK-5149,1 53981U 22125T   23021.16952901  .00033002  00000-0  20810-2 0  9990,2 53981  53.2154 297.3545 0001653  81.5918 278.5262 15.08857150 17044,6917.828,95.436,540.836,538.549,0.0
53981.0,STARLINK-5149,PAYLOAD,2023-01-22 02:19:30,15.08876343,0.0001353,53.2161,293.1926,90.6889,269.4258,0.0023199,0.00036863,0.0,0 STARLINK-5149,1 53981U 22125T   23022.09688403  .00036863  00000-0  23199-2 0  9997,2 53981  53.2161 293.1926 0001353  90.6889 269.4258 15.08876343 17188,6917.769,95.435,540.57,538.698,0.0
53981.0,STARLINK-5149,PAYLOAD,2023-01-22 18:13:22,15.08842206,0.0001535,53.2153,290.2185,110.6576,249.4581,0.0018434,0.00029173,0.0,0 STARLINK-5149,1 53981U 22125T   23022.75928903  .00029173  00000-0  18434-2 0  9994,2 53981  53.2153 290.2185 0001535 110.6576 249.4581 15.08842206 17281,6917.874,95.437,540.8009999999999,538.677,0.0
53981.0,STARLINK-5149,PAYLOAD,2023-01-23 10:07:13,15.08845754,0.0001449,53.2154,287.2437,100.8414,259.2741,0.00084231,0.00013145,0.0,0 STARLINK-5149,1 53981U 22125T   23023.42168889  .00013145  00000-0  84231-3 0  9999,2 53981  53.2154 287.2437 0001449 100.8414 259.2741 15.08845754 17383,6917.863,95.437,540.73,538.725,0.0
53981.0,STARLINK-5149,PAYLOAD,2023-01-23 22:50:19,15.08833673,0.0001543,53.2154,284.8653,108.0134,252.1026,0.0004784,7.333e-05,0.0,0 STARLINK-5149,1 53981U 22125T   23023.95161171  .00007333  00000-0  47840-3 0  9991,2 53981  53.2154 284.8653 0001543 108.0134 252.1026 15.08833673 17464,6917.9,95.438,540.832,538.697,0.0
53981.0,STARLINK-5149,PAYLOAD,2023-01-25 01:51:52,15.08850111,0.0001198,53.2143,279.8102,82.4558,277.657,0.00045862,7.021e-05,0.0,0 STARLINK-5149,1 53981U 22125T   23025.07768875  .00007021  00000-0  45862-3 0  9996,2 53981  53.2143 279.8102 0001198  82.4558 277.6570 15.08850111 17637,6917.849,95.437,540.543,538.886,0.0
53981.0,STARLINK-5149,PAYLOAD,2023-01-26 01:42:39,15.08847587,0.0001220999999999,53.2138,275.3484,83.7481,276.365,0.00037327,5.659e-05,0.0,0 STARLINK-5149,1 53981U 22125T   23026.07129027  .00005659  00000-0  37327-3 0  9999,2 53981  53.2138 275.3484 0001221  83.7481 276.3650 15.08847587 17785,6917.857,95.437,540.567,538.878,0.0
53981.0,STARLINK-5149,PAYLOAD,2023-01-27 01:33:26,15.08843549,0.0001195,53.2147,270.887,96.391,263.7218,0.00012392,1.685e-05,0.0,0 STARLINK-5149,1 53981U 22125T   23027.06489227  .00001685  00000-0  12392-3 0  9990,2 53981  53.2147 270.8870 0001195  96.3910 263.7218 15.08843549 17932,6917.87,95.437,540.561,538.908,0.0
53981.0,STARLINK-5149,PAYLOAD,2023-01-27 22:13:27,15.08841523,0.0001141,53.2143,267.022,93.3409,266.7713,9.0454e-05,1.152e-05,0.0,0 STARLINK-5149,1 53981U 22125T   23027.92601556  .00001152  00000-0  90454-4 0  9991,2 53981  53.2143 267.0220 0001141  93.3409 266.7713 15.08841523 17995,6917.876,95.437,540.53,538.951,0.0
53981.0,STARLINK-5149,PAYLOAD,2023-01-28 01:24:13,15.0884346,0.0001199999999999,53.2143,266.427,86.041,274.0719,0.00011871,1.602e-05,0.0,0 STARLINK-5149,1 53981U 22125T   23028.05849499  .00001602  00000-0  11871-3 0  9991,2 53981  53.2143 266.4270 0001200  86.0410 274.0719 15.08843460 18081,6917.87,95.437,540.565,538.905,0.0
53981.0,STARLINK-5149,PAYLOAD,2023-01-28 02:59:36,15.08848236,0.0001273,53.2149,266.1302,93.2369,266.8769,0.00020658,3.002e-05,0.0,0 STARLINK-5149,1 53981U 22125T   23028.12473080  .00003002  00000-0  20658-3 0  9997,2 53981  53.2149 266.1302 0001273  93.2369 266.8769 15.08848236 18027,6917.855,95.437,540.601,538.84,0.0
53981.0,STARLINK-5149,PAYLOAD,2023-01-28 20:28:51,15.08845693,0.0001317,53.2138,262.8601,85.6875,274.4267,0.0001383,1.914e-05,0.0,0 STARLINK-5149,1 53981U 22125T   23028.85337326  .00001914  00000-0  13830-3 0  9993,2 53981  53.2138 262.8601 0001317  85.6875 274.4267 15.08845693 18130,6917.863,95.437,540.639,538.817,0.0
53981.0,STARLINK-5149,PAYLOAD,2023-01-29 15:33:29,15.08837747,0.0001523,53.2149,259.289,94.8544,265.2622,1.9544e-05,2.3e-07,0.0,0 STARLINK-5149,1 53981U 22125T   23029.64825649  .00000023  00000-0  19544-4 0  9990,2 53981  53.2149 259.2890 0001523  94.8544 265.2622 15.08837747 18321,6917.887,95.438,540.806,538.699,0.0
53981.0,STARLINK-5149,PAYLOAD,2023-01-29 21:55:02,15.08838968,0.0001307,53.2155,258.1017,82.6298,277.4842,7.072e-06,-1.75e-06,0.0,0 STARLINK-5149,1 53981U 22125T   23029.91321843 -.00000175  00000-0  70720-5 0  9990,2 53981  53.2155 258.1017 0001307  82.6298 277.4842 15.08838968 18299,6917.884,95.438,540.653,538.844,0.0
53981.0,STARLINK-5149,PAYLOAD,2023-01-30 01:05:48,15.0884019,0.000131,53.2155,257.5067,82.6487,277.4654,1.3359e-05,-7.5e-07,0.0,0 STARLINK-5149,1 53981U 22125T   23030.04569718 -.00000075  00000-0  13359-4 0  9994,2 53981  53.2155 257.5067 0001310  82.6487 277.4654 15.08840190 18315,6917.88,95.438,540.651,538.839,0.0
53981.0,STARLINK-5149,PAYLOAD,2023-01-30 15:24:18,15.08820215,0.0001337,53.2159,254.8297,69.7902,290.3234,-0.00013882,-2.495e-05,0.0,0 STARLINK-5149,1 53981U 22125T   23030.64188008 -.00002495  00000-0 -13882-3 0  9998,2 53981  53.2159 254.8297 0001337  69.7902 290.3234 15.08820215 18472,6917.941,95.439,540.731,538.881,0.0
53981.0,STARLINK-5149,PAYLOAD,2023-01-30 21:45:51,15.08820443,0.00011,53.2159,253.6414,83.2592,276.8525,-0.00010567,-1.968e-05,0.0,0 STARLINK-5149,1 53981U 22125T   23030.90684125 -.00001968  00000-0 -10567-3 0  9999,2 53981  53.2159 253.6414 0001100  83.2592 276.8525 15.08820443 18446,6917.94,95.439,540.566,539.044,0.0
53981.0,STARLINK-5149,PAYLOAD,2023-01-31 10:28:56,15.0882394,0.0001173,53.2155,251.2622,79.622,280.4905,4.7512e-05,4.68e-06,0.0,0 STARLINK-5149,1 53981U 22125T   23031.43676174  .00000468  00000-0  47512-4 0  9996,2 53981  53.2155 251.2622 0001173  79.6220 280.4905 15.08823940 18598,6917.929,95.439,540.606,538.983,0.0
53981.0,STARLINK-5149,PAYLOAD,2023-01-31 21:36:38,15.08830438,0.0001187,53.2153,249.1808,79.4494,280.6632,9.9576e-05,1.297e-05,0.0,0 STARLINK-5149,1 53981U 22125T   23031.90044137  .00001297  00000-0  99576-4 0  9994,2 53981  53.2153 249.1808 0001187  79.4494 280.6632 15.08830438 18593,6917.91,95.438,540.596,538.953,0.0
53981.0,STARLINK-5149,PAYLOAD,2023-02-01 16:41:15,15.08843075,0.0001145,53.2154,245.6117,75.9443,284.1676,0.00036833,5.579e-05,0.0,0 STARLINK-5149,1 53981U 22125T   23032.69531352  .00005579  00000-0  36833-3 0  9994,2 53981  53.2154 245.6117 0001145  75.9443 284.1676 15.08843075 18786,6917.871,95.437,540.528,538.944,0.0
53981.0,STARLINK-5149,PAYLOAD,2023-02-02 13:21:15,15.08856092,0.0001117,53.2145,241.7465,72.3288,287.7826,0.00030394,4.555e-05,0.0,0 STARLINK-5149,1 53981U 22125T   23033.55642753  .00004555  00000-0  30394-3 0  9997,2 53981  53.2145 241.7465 0001117  72.3288 287.7826 15.08856092 18842,6917.831,95.437,540.469,538.923,0.0
53981.0,STARLINK-5149,PAYLOAD,2023-02-03 10:01:15,15.08855822,0.0001223,53.2137,237.8805,74.3262,285.7865,6.4767e-05,7.43e-06,0.0,0 STARLINK-5149,1 53981U 22125T   23034.41753858  .00000743  00000-0  64767-4 0  9999,2 53981  53.2137 237.8805 0001223  74.3262 285.7865 15.08855822 19043,6917.832,95.437,540.543,538.851,0.0
53981.0,STARLINK-5149,PAYLOAD,2023-02-03 13:12:01,15.08848024,0.0001263,53.2138,237.2861,66.0983,294.0141,-0.00010223,-1.915e-05,0.0,0 STARLINK-5149,1 53981U 22125T   23034.55001994 -.00001915  00000-0 -10223-3 0  9992,2 53981  53.2138 237.2861 0001263  66.0983 294.0141 15.08848024 18991,6917.856,95.437,540.595,538.847,0.0
53981.0,STARLINK-5149,PAYLOAD,2023-02-03 16:22:47,15.08848933,0.0001216,53.2142,236.6913,73.8702,286.2424,-7.1363e-05,-1.424e-05,0.0,0 STARLINK-5149,1 53981U 22125T   23034.68249864 -.00001424  00000-0 -71363-4 0  9994,2 53981  53.2142 236.6913 0001216  73.8702 286.2424 15.08848933 19010,6917.853,95.437,540.559,538.877,0.0
